SL-14 R/B               
1 16792U 86046B   25364.83421565  .00000964  00000+0  10829-3 0  9994
2 16792  82.4824 145.2257 0024549  95.3226 265.0792 14.85507918116188
SL-14 R/B               
1 16882U 86055B   25364.63108876  .00000881  00000+0  98941-4 0  9999
2 16882  82.5195 191.5605 0018418 196.4890 231.6046 14.85550878109118
AJISAI (EGS)            
1 16908U 86061A   25364.81762250 -.00000090  00000+0  55560-4 0  9990
2 16908  50.0109 305.1297 0011316 111.2930 342.7011 12.44514511459427
COSMOS 1812             
1 17295U 87003A   25364.81028961  .00170597  00000+0  91892-3 0  9997
2 17295  82.4868 272.4011 0005440  63.1369 297.0453 15.79685901133503
SL-14 R/B               
1 17567U 87024B   25364.48860120  .00000981  00000+0  10902-3 0  9998
2 17567  82.5283 157.7810 0019445 127.2468 233.0526 14.86046183 77857
COSMOS 1833             
1 17589U 87027A   25364.69867329  .00000326  00000+0  19996-3 0  9991
2 17589  70.9175 111.0262 0023374 306.7497  53.1477 14.13032213   578
SL-16 R/B               
1 17590U 87027B   25364.58988196 -.00000139  00000+0 -45194-4 0  9991
2 17590  71.0034  62.1055 0007096 241.0789 118.9623 14.17156071  5559
SL-14 R/B               
1 17912U 87038B   25364.51532104  .00000876  00000+0  98861-4 0  9993
2 17912  82.5009   1.9562 0020262  37.2158 323.0457 14.85280849 68969
COSMOS 1844             
1 17973U 87041A   25364.80667398  .00000337  00000+0  19977-3 0  9992
2 17973  70.8981 179.4650 0029125 128.4853 231.8888 14.14536102993842
SL-14 R/B               
1 18153U 87055B   25364.63880557  .00000783  00000+0  87578-4 0  9991
2 18153  82.4987  54.1186 0019366 239.8240 120.1058 14.85541503 59687
COSMOS 1867             
1 18187U 87060A   25364.83692604  .00000035  00000+0  50745-4 0  9996
2 18187  65.0099 139.5229 0013756 272.9644  86.9866 14.31489629 10082
SL-14 R/B               
1 18749U 88001B   25364.76432391  .00000776  00000+0  86954-4 0  9996
2 18749  82.5131 260.1955 0019570 104.9384 255.4000 14.85444658 31795
