CCSDS_OMM_VERS = 2.0
CREATION_DATE  = 
ORIGINATOR     = 

OBJECT_NAME    = SL-14 R/B
OBJECT_ID      = 1986-046B
CENTER_NAME    = EARTH
REF_FRAME      = TEME
TIME_SYSTEM    = UTC
MEAN_ELEMENT_THEORY = SGP/SGP4

EPOCH          = 2025-12-30T20:01:16.232160
MEAN_MOTION    = 14.85507918
ECCENTRICITY   = .0024549
INCLINATION    = 82.4824
RA_OF_ASC_NODE = 145.2257
ARG_OF_PERICENTER = 95.3226
MEAN_ANOMALY   = 265.0792

EPHEMERIS_TYPE = 0
CLASSIFICATION_TYPE = U
NORAD_CAT_ID   = 16792
ELEMENT_SET_NO = 999
REV_AT_EPOCH   = 11618
BSTAR          = .10829E-3
MEAN_MOTION_DOT = .964E-5
MEAN_MOTION_DDOT = 0

CCSDS_OMM_VERS = 2.0
CREATION_DATE  = 
ORIGINATOR     = 

OBJECT_NAME    = SL-14 R/B
OBJECT_ID      = 1986-055B
CENTER_NAME    = EARTH
REF_FRAME      = TEME
TIME_SYSTEM    = UTC
MEAN_ELEMENT_THEORY = SGP/SGP4

EPOCH          = 2025-12-30T15:08:46.068864
MEAN_MOTION    = 14.85550878
ECCENTRICITY   = .0018418
INCLINATION    = 82.5195
RA_OF_ASC_NODE = 191.5605
ARG_OF_PERICENTER = 196.4890
MEAN_ANOMALY   = 231.6046

EPHEMERIS_TYPE = 0
CLASSIFICATION_TYPE = U
NORAD_CAT_ID   = 16882
ELEMENT_SET_NO = 999
REV_AT_EPOCH   = 10911
BSTAR          = .98941E-4
MEAN_MOTION_DOT = .881E-5
MEAN_MOTION_DDOT = 0

CCSDS_OMM_VERS = 2.0
CREATION_DATE  = 
ORIGINATOR     = 

OBJECT_NAME    = AJISAI (EGS)
OBJECT_ID      = 1986-061A
CENTER_NAME    = EARTH
REF_FRAME      = TEME
TIME_SYSTEM    = UTC
MEAN_ELEMENT_THEORY = SGP/SGP4

EPOCH          = 2025-12-30T19:37:22.584000
MEAN_MOTION    = 12.44514511
ECCENTRICITY   = .0011316
INCLINATION    = 50.0109
RA_OF_ASC_NODE = 305.1297
ARG_OF_PERICENTER = 111.2930
MEAN_ANOMALY   = 342.7011

EPHEMERIS_TYPE = 0
CLASSIFICATION_TYPE = U
NORAD_CAT_ID   = 16908
ELEMENT_SET_NO = 999
REV_AT_EPOCH   = 45942
BSTAR          = .5556E-4
MEAN_MOTION_DOT = -.9E-6
MEAN_MOTION_DDOT = 0

CCSDS_OMM_VERS = 2.0
CREATION_DATE  = 
ORIGINATOR     = 

OBJECT_NAME    = COSMOS 1812
OBJECT_ID      = 1987-003A
CENTER_NAME    = EARTH
REF_FRAME      = TEME
TIME_SYSTEM    = UTC
MEAN_ELEMENT_THEORY = SGP/SGP4

EPOCH          = 2025-12-30T19:26:49.022304
MEAN_MOTION    = 15.79685901
ECCENTRICITY   = .000544
INCLINATION    = 82.4868
RA_OF_ASC_NODE = 272.4011
ARG_OF_PERICENTER = 63.1369
MEAN_ANOMALY   = 297.0453

EPHEMERIS_TYPE = 0
CLASSIFICATION_TYPE = U
NORAD_CAT_ID   = 17295
ELEMENT_SET_NO = 999
REV_AT_EPOCH   = 13350
BSTAR          = .91892E-3
MEAN_MOTION_DOT = .170597E-2
MEAN_MOTION_DDOT = 0

CCSDS_OMM_VERS = 2.0
CREATION_DATE  = 
ORIGINATOR     = 

OBJECT_NAME    = SL-14 R/B
OBJECT_ID      = 1987-024B
CENTER_NAME    = EARTH
REF_FRAME      = TEME
TIME_SYSTEM    = UTC
MEAN_ELEMENT_THEORY = SGP/SGP4

EPOCH          = 2025-12-30T11:43:35.143680
MEAN_MOTION    = 14.86046183
ECCENTRICITY   = .00194452
INCLINATION    = 82.5283
RA_OF_ASC_NODE = 157.7810
ARG_OF_PERICENTER = 127.2468
MEAN_ANOMALY   = 233.0526

EPHEMERIS_TYPE = 0
CLASSIFICATION_TYPE = U
NORAD_CAT_ID   = 17567
ELEMENT_SET_NO = 999
REV_AT_EPOCH   = 7785
BSTAR          = .10901934E-3
MEAN_MOTION_DOT = .981E-5
MEAN_MOTION_DDOT = 0

CCSDS_OMM_VERS = 2.0
CREATION_DATE  = 
ORIGINATOR     = 

OBJECT_NAME    = COSMOS 1833
OBJECT_ID      = 1987-027A
CENTER_NAME    = EARTH
REF_FRAME      = TEME
TIME_SYSTEM    = UTC
MEAN_ELEMENT_THEORY = SGP/SGP4

EPOCH          = 2025-12-30T16:46:05.372256
MEAN_MOTION    = 14.13032213
ECCENTRICITY   = .0023374
INCLINATION    = 70.9175
RA_OF_ASC_NODE = 111.0262
ARG_OF_PERICENTER = 306.7497
MEAN_ANOMALY   = 53.1477

EPHEMERIS_TYPE = 0
CLASSIFICATION_TYPE = U
NORAD_CAT_ID   = 17589
ELEMENT_SET_NO = 999
REV_AT_EPOCH   = 57
BSTAR          = .19996E-3
MEAN_MOTION_DOT = .326E-5
MEAN_MOTION_DDOT = 0

CCSDS_OMM_VERS = 2.0
CREATION_DATE  = 
ORIGINATOR     = 

OBJECT_NAME    = SL-16 R/B
OBJECT_ID      = 1987-027B
CENTER_NAME    = EARTH
REF_FRAME      = TEME
TIME_SYSTEM    = UTC
MEAN_ELEMENT_THEORY = SGP/SGP4

EPOCH          = 2025-12-30T14:09:25.801344
MEAN_MOTION    = 14.17156071
ECCENTRICITY   = .0007096
INCLINATION    = 71.0034
RA_OF_ASC_NODE = 62.1055
ARG_OF_PERICENTER = 241.0789
MEAN_ANOMALY   = 118.9623

EPHEMERIS_TYPE = 0
CLASSIFICATION_TYPE = U
NORAD_CAT_ID   = 17590
ELEMENT_SET_NO = 999
REV_AT_EPOCH   = 555
BSTAR          = -.45194E-4
MEAN_MOTION_DOT = -.139E-5
MEAN_MOTION_DDOT = 0

CCSDS_OMM_VERS = 2.0
CREATION_DATE  = 
ORIGINATOR     = 

OBJECT_NAME    = SL-14 R/B
OBJECT_ID      = 1987-038B
CENTER_NAME    = EARTH
REF_FRAME      = TEME
TIME_SYSTEM    = UTC
MEAN_ELEMENT_THEORY = SGP/SGP4

EPOCH          = 2025-12-30T12:22:03.737856
MEAN_MOTION    = 14.85280849
ECCENTRICITY   = .0020262
INCLINATION    = 82.5009
RA_OF_ASC_NODE = 1.9562
ARG_OF_PERICENTER = 37.2158
MEAN_ANOMALY   = 323.0457

EPHEMERIS_TYPE = 0
CLASSIFICATION_TYPE = U
NORAD_CAT_ID   = 17912
ELEMENT_SET_NO = 999
REV_AT_EPOCH   = 6896
BSTAR          = .98861E-4
MEAN_MOTION_DOT = .876E-5
MEAN_MOTION_DDOT = 0

CCSDS_OMM_VERS = 2.0
CREATION_DATE  = 
ORIGINATOR     = 

OBJECT_NAME    = COSMOS 1844
OBJECT_ID      = 1987-041A
CENTER_NAME    = EARTH
REF_FRAME      = TEME
TIME_SYSTEM    = UTC
MEAN_ELEMENT_THEORY = SGP/SGP4

EPOCH          = 2025-12-30T19:21:36.631872
MEAN_MOTION    = 14.14536102
ECCENTRICITY   = .0029125
INCLINATION    = 70.8981
RA_OF_ASC_NODE = 179.4650
ARG_OF_PERICENTER = 128.4853
MEAN_ANOMALY   = 231.8888

EPHEMERIS_TYPE = 0
CLASSIFICATION_TYPE = U
NORAD_CAT_ID   = 17973
ELEMENT_SET_NO = 999
REV_AT_EPOCH   = 99384
BSTAR          = .19977E-3
MEAN_MOTION_DOT = .337E-5
MEAN_MOTION_DDOT = 0

CCSDS_OMM_VERS = 2.0
CREATION_DATE  = 
ORIGINATOR     = 

OBJECT_NAME    = SL-14 R/B
OBJECT_ID      = 1987-055B
CENTER_NAME    = EARTH
REF_FRAME      = TEME
TIME_SYSTEM    = UTC
MEAN_ELEMENT_THEORY = SGP/SGP4

EPOCH          = 2025-12-30T15:19:52.801248
MEAN_MOTION    = 14.85541503
ECCENTRICITY   = .0019366
INCLINATION    = 82.4987
RA_OF_ASC_NODE = 54.1186
ARG_OF_PERICENTER = 239.8240
MEAN_ANOMALY   = 120.1058

EPHEMERIS_TYPE = 0
CLASSIFICATION_TYPE = U
NORAD_CAT_ID   = 18153
ELEMENT_SET_NO = 999
REV_AT_EPOCH   = 5968
BSTAR          = .87578E-4
MEAN_MOTION_DOT = .783E-5
MEAN_MOTION_DDOT = 0

CCSDS_OMM_VERS = 2.0
CREATION_DATE  = 
ORIGINATOR     = 

OBJECT_NAME    = COSMOS 1867
OBJECT_ID      = 1987-060A
CENTER_NAME    = EARTH
REF_FRAME      = TEME
TIME_SYSTEM    = UTC
MEAN_ELEMENT_THEORY = SGP/SGP4

EPOCH          = 2025-12-30T20:05:10.409856
MEAN_MOTION    = 14.31489629
ECCENTRICITY   = .0013756
INCLINATION    = 65.0099
RA_OF_ASC_NODE = 139.5229
ARG_OF_PERICENTER = 272.9644
MEAN_ANOMALY   = 86.9866

EPHEMERIS_TYPE = 0
CLASSIFICATION_TYPE = U
NORAD_CAT_ID   = 18187
ELEMENT_SET_NO = 999
REV_AT_EPOCH   = 1008
BSTAR          = .50745E-4
MEAN_MOTION_DOT = .35E-6
MEAN_MOTION_DDOT = 0

CCSDS_OMM_VERS = 2.0
CREATION_DATE  = 
ORIGINATOR     = 

OBJECT_NAME    = SL-14 R/B
OBJECT_ID      = 1988-001B
CENTER_NAME    = EARTH
REF_FRAME      = TEME
TIME_SYSTEM    = UTC
MEAN_ELEMENT_THEORY = SGP/SGP4

EPOCH          = 2025-12-30T18:20:37.585824
MEAN_MOTION    = 14.85444658
ECCENTRICITY   = .001957
INCLINATION    = 82.5131
RA_OF_ASC_NODE = 260.1955
ARG_OF_PERICENTER = 104.9384
MEAN_ANOMALY   = 255.4000

EPHEMERIS_TYPE = 0
CLASSIFICATION_TYPE = U
NORAD_CAT_ID   = 18749
ELEMENT_SET_NO = 999
REV_AT_EPOCH   = 3179
BSTAR          = .86954E-4
MEAN_MOTION_DOT = .776E-5
MEAN_MOTION_DDOT = 0

